MALLIGYONG-1            
1 58400U 23179A   24288.87865975  .00008238  00000+0  37049-3 0  9994
2 58400  97.3841 173.6216 0009163  27.6139 332.5582 15.21329862 49925
